[
    {
        "Altitude(m)": 612502.252282367,
        "Argument of Periapsis(deg)": 0.0,
        "Eccentricity": 0.0,
        "Inclination(deg)": 60.0,
        "Latitude(deg)": -28.136159754367085,
        "Longitude(deg)": -87.85175687750127,
        "Mean Anomaly(deg)": 327.2727,
        "RAAN(deg)": 30.0,
        "Satellite Name": "Test1 152",
        "Satellite Number": 152,
        "Semi-Major Axis(m)": 6980739.136638005,
        "Time(s)": 0
    },
    {
        "Altitude(m)": 612308.6994918837,
        "Argument of Periapsis(deg)": 0.00010418945913296404,
        "Eccentricity": 0.0,
        "Inclination(deg)": 60.0,
        "Latitude(deg)": -27.6232151456214,
        "Longitude(deg)": -87.49828199723791,
        "Mean Anomaly(deg)": 327.8928061454618,
        "RAAN(deg)": 29.99957995086026,
        "Satellite Name": "Test1 152",
        "Satellite Number": 152,
        "Semi-Major Axis(m)": 6980739.136638005,
        "Time(s)": 10
    }
]